[{"OBJECT_NAME":"HULIANWANG DIGUI-77","OBJECT_ID":"2025-187E","EPOCH":"2026-03-09T22:00:35.438112","MEAN_MOTION":13.29341556,"ECCENTRICITY":0.00010501,"INCLINATION":50.0036,"RA_OF_ASC_NODE":202.0382,"ARG_OF_PERICENTER":153.4677,"MEAN_ANOMALY":206.6249,"EPHEMERIS_TYPE":0,"CLASSIFICATION_TYPE":"U","NORAD_CAT_ID":65309,"ELEMENT_SET_NO":999,"REV_AT_EPOCH":2649,"BSTAR":9.4322846e-5,"MEAN_MOTION_DOT":-8.0e-7,"MEAN_MOTION_DDOT":0},{"OBJECT_NAME":"COSMOS 972","OBJECT_ID":"1977-123A","EPOCH":"2026-03-09T22:03:22.081248","MEAN_MOTION":13.89154605,"ECCENTRICITY":0.0301569,"INCLINATION":75.8316,"RA_OF_ASC_NODE":255.9812,"ARG_OF_PERICENTER":54.6026,"MEAN_ANOMALY":308.2882,"EPHEMERIS_TYPE":0,"CLASSIFICATION_TYPE":"U","NORAD_CAT_ID":10539,"ELEMENT_SET_NO":999,"REV_AT_EPOCH":44226,"BSTAR":5.5698539e-5,"MEAN_MOTION_DOT":8.7e-7,"MEAN_MOTION_DDOT":0}]
